{
  "56288": {
    "noradId": "56288",
    "tle": [
      "1 56288C 23056C   26026.82895833 -.00009748  00000+0 -71925-3 0   264",
      "2 56288  43.0025  77.4872 0000831 260.3618 327.4430 15.02547796    18"
    ]
  },
  "56289": {
    "noradId": "56289",
    "tle": [
      "1 56289C 23056D   26026.82548611 -.00001347  00000+0 -99364-4 0   269",
      "2 56289  43.0035  51.7444 0001371 266.3761 137.6723 15.02533795    15"
    ]
  },
  "56290": {
    "noradId": "56290",
    "tle": [
      "1 56290C 23056E   26026.82618056 -.00003404  00000+0 -25119-3 0   264",
      "2 56290  43.0026  77.4618 0001268 266.7295 324.0657 15.02540648    19"
    ]
  },
  "56291": {
    "noradId": "56291",
    "tle": [
      "1 56291C 23056F   26026.80604167 -.00008982  00000+0 -66276-3 0   266",
      "2 56291  43.0027  77.6485 0001302 267.0246 178.6697 15.02542764    12"
    ]
  },
  "56292": {
    "noradId": "56292",
    "tle": [
      "1 56292C 23056G   26026.82965278 -.00003973  00000+0 -29311-3 0   266",
      "2 56292  43.0027  77.3902 0001488 267.3700   0.2788 15.02540569    19"
    ]
  },
  "56293": {
    "noradId": "56293",
    "tle": [
      "1 56293C 23056H   26026.83034722 -.00002904  00000+0 -21430-3 0   266",
      "2 56293  43.0028  78.1465 0000937 260.1438  46.7238 15.02532417    19"
    ]
  },
  "56294": {
    "noradId": "56294",
    "tle": [
      "1 56294C 23056J   26026.82479167 -.00000041  00000+0 -29961-5 0   261",
      "2 56294  43.0029  78.0754 0001396 287.5041   7.3156 15.02540157    16"
    ]
  },
  "56295": {
    "noradId": "56295",
    "tle": [
      "1 56295C 23056K   26026.82756944  .00000911  00000+0  67228-4 0   264",
      "2 56295  43.0036  51.8890 0001088 262.1998  81.0223 15.02529484    17"
    ]
  },
  "56296": {
    "noradId": "56296",
    "tle": [
      "1 56296C 23056L   26026.82895833  .00007919  00000+0  58434-3 0   269",
      "2 56296  43.0038  38.8488 0000950 269.6610  79.7244 15.02528090    17"
    ]
  },
  "56297": {
    "noradId": "56297",
    "tle": [
      "1 56297C 23056M   26026.81368056  .00002424  00000+0  17886-3 0   263",
      "2 56297  43.0028  77.8752 0001608 273.5368  69.3228 15.02531613    11"
    ]
  },
  "56298": {
    "noradId": "56298",
    "tle": [
      "1 56298C 23056N   26026.82479167  .00002777  00000+0  20492-3 0   269",
      "2 56298  43.0030  77.9046 0001558 276.6059  90.3558 15.02529978    18"
    ]
  },
  "56299": {
    "noradId": "56299",
    "tle": [
      "1 56299C 23056P   26026.82965278 -.00012558  00000+0 -92681-3 0   262",
      "2 56299  43.0031  65.3143 0001360 268.5958 303.0011 15.02539472    16"
    ]
  },
  "56300": {
    "noradId": "56300",
    "tle": [
      "1 56300C 23056Q   26026.82340278  .00000396  00000+0  29258-4 0   268",
      "2 56300  43.0027  77.3905 0001286 267.6772 344.1789 15.02526391    18"
    ]
  },
  "56301": {
    "noradId": "56301",
    "tle": [
      "1 56301C 23056R   26026.82409722 -.00002503  00000+0 -18466-3 0   261",
      "2 56301  43.0030  77.7558 0001230 271.0070 182.3122 15.02537896    15"
    ]
  },
  "56302": {
    "noradId": "56302",
    "tle": [
      "1 56302C 23056S   26026.82618056  .00000815  00000+0  60106-4 0   265",
      "2 56302  43.0027  77.5917 0001384 268.0185 232.6773 15.02540389    14"
    ]
  },
  "56304": {
    "noradId": "56304",
    "tle": [
      "1 56304C 23056U   26026.82826389 -.00011406  00000+0 -84171-3 0   264",
      "2 56304  43.0027  77.5255 0001273 261.2442 268.7982 15.02543979    19"
    ]
  },
  "56305": {
    "noradId": "56305",
    "tle": [
      "1 56305C 23056V   26026.83034722  .00004075  00000+0  30067-3 0   265",
      "2 56305  43.0028  77.4622 0001506 276.0251 283.3255 15.02530572    10"
    ]
  },
  "56306": {
    "noradId": "56306",
    "tle": [
      "1 56306C 23056W   26026.81715278  .00003542  00000+0  26132-3 0   262",
      "2 56306  43.0027  77.6828 0001618 275.2278 158.5664 15.02535811    12"
    ]
  },
  "56317": {
    "noradId": "56317",
    "tle": [
      "1 56317C 23058A   26026.83243056  .00005755  00000+0  39963-3 0   262",
      "2 56317  97.6056  29.9619 0002518 105.2511  81.8163 15.05639068    15"
    ]
  },
  "56318": {
    "noradId": "56318",
    "tle": [
      "1 56318C 23058B   26026.81090278  .00004571  00000+0  31744-3 0   261",
      "2 56318  97.6055  30.0033 0001687  85.6835 134.7334 15.05641930    13"
    ]
  },
  "56319": {
    "noradId": "56319",
    "tle": [
      "1 56319C 23058C   26026.82756944 -.00000272  00000+0 -21219-4 0   265",
      "2 56319  97.6047  29.1639 0002825  89.6992 344.6586 15.01259532    19"
    ]
  },
  "56320": {
    "noradId": "56320",
    "tle": [
      "1 56320C 23058D   26026.80881944  .00001313  00000+0  10239-3 0   268",
      "2 56320  97.6054  29.1290 0001878  91.1970 210.5554 15.01260296    18"
    ]
  },
  "56321": {
    "noradId": "56321",
    "tle": [
      "1 56321C 23058E   26026.80465278  .00003904  00000+0  27113-3 0   264",
      "2 56321  97.6054  29.9728 0001950  83.7390  42.8417 15.05640033    16"
    ]
  },
  "56322": {
    "noradId": "56322",
    "tle": [
      "1 56322C 23058F   26026.83034722  .00009423  00000+0  73520-3 0   269",
      "2 56322  97.6052  29.1558 0002098  84.2448 345.0343 15.01243819    15"
    ]
  },
  "56323": {
    "noradId": "56323",
    "tle": [
      "1 56323C 23058G   26026.83034722  .00003405  00000+0  26556-3 0   261",
      "2 56323  97.6044  29.1764 0002958  71.3014  38.0626 15.01256669    17"
    ]
  },
  "56324": {
    "noradId": "56324",
    "tle": [
      "1 56324C 23058H   26026.82687500  .00001278  00000+0  88730-4 0   268",
      "2 56324  97.6053  30.0250 0001145  94.9224 227.0159 15.05644699    19"
    ]
  },
  "56325": {
    "noradId": "56325",
    "tle": [
      "1 56325C 23058J   26026.76506944  .00001282  00000+0  10002-3 0   265",
      "2 56325  97.6046  29.1298 0003490  44.0484 112.7545 15.01256224    10"
    ]
  },
  "56326": {
    "noradId": "56326",
    "tle": [
      "1 56326C 23058K   26026.80604167 -.00002885  00000+0 -22505-3 0   260",
      "2 56326  97.6046  29.1470 0002986  70.4837 256.2777 15.01262865    16"
    ]
  },
  "56327": {
    "noradId": "56327",
    "tle": [
      "1 56327C 23058L   26026.83104167  .00003352  00000+0  26147-3 0   263",
      "2 56327  97.6047  29.2056 0002317  56.4525 125.3618 15.01255840    10"
    ]
  },
  "56328": {
    "noradId": "56328",
    "tle": [
      "1 56328C 23058M   26026.83173611  .00007500  00000+0  52092-3 0   261",
      "2 56328  97.6058  29.9487 0002319  64.2325  89.1182 15.05630661    10"
    ]
  },
  "56329": {
    "noradId": "56329",
    "tle": [
      "1 56329C 23058N   26026.81090278 -.00003696  00000+0 -25669-3 0   261",
      "2 56329  97.6059  29.9597 0002638  89.8109  25.6248 15.05650255    10"
    ]
  },
  "56331": {
    "noradId": "56331",
    "tle": [
      "1 56331C 23058Q   26026.82756944  .00002471  00000+0  19277-3 0   260",
      "2 56331  97.6049  29.2064 0002798  53.7779 120.6018 15.01258071    11"
    ]
  },
  "56332": {
    "noradId": "56332",
    "tle": [
      "1 56332C 23058R   26026.80881944  .00006011  00000+0  46885-3 0   267",
      "2 56332  97.6043  29.1645 0003775  51.3819 321.6042 15.01251341    18"
    ]
  },
  "56333": {
    "noradId": "56333",
    "tle": [
      "1 56333C 23058S   26026.80743056  .00007061  00000+0  49038-3 0   268",
      "2 56333  97.6062  29.8921 0001963  90.8221 215.8408 15.05636012    12"
    ]
  },
  "56334": {
    "noradId": "56334",
    "tle": [
      "1 56334C 23058T   26026.81090278  .00005030  00000+0  34934-3 0   264",
      "2 56334  97.6057  30.0170 0001564  90.4854 159.9267 15.05641613    16"
    ]
  },
  "56335": {
    "noradId": "56335",
    "tle": [
      "1 56335C 23058U   26026.80534722 -.00001311  00000+0 -91009-4 0   268",
      "2 56335  97.6056  29.9812 0001579  90.9660  54.3672 15.05647150    12"
    ]
  },
  "56336": {
    "noradId": "56336",
    "tle": [
      "1 56336C 23058V   26026.81090278  .00005763  00000+0  44944-3 0   261",
      "2 56336  97.6048  29.1823 0003449  60.1066   4.2358 15.01257811    17"
    ]
  },
  "56337": {
    "noradId": "56337",
    "tle": [
      "1 56337C 23058W   26026.80881944 -.00000701  00000+0 -54642-4 0   265",
      "2 56337  97.6044  29.1923 0003044  84.1593  17.6339 15.01260662    12"
    ]
  },
  "56338": {
    "noradId": "56338",
    "tle": [
      "1 56338C 23058X   26026.80812500  .00005544  00000+0  43250-3 0   268",
      "2 56338  97.6042  29.1913 0002015  83.0541   6.3101 15.01253880    14"
    ]
  },
  "56339": {
    "noradId": "56339",
    "tle": [
      "1 56339C 23058Y   26026.81159722  .00005594  00000+0  43635-3 0   262",
      "2 56339  97.6045  29.2062 0001739  92.1000  56.0220 15.01253411    11"
    ]
  },
  "56340": {
    "noradId": "56340",
    "tle": [
      "1 56340C 23058Z   26026.80673611  .00002553  00000+0  17732-3 0   262",
      "2 56340  97.6062  29.9040 0001755  94.7805 238.1092 15.05643488    15"
    ]
  },
  "56341": {
    "noradId": "56341",
    "tle": [
      "1 56341C 23058AA  26026.80673611 -.00000348  00000+0 -27151-4 0   262",
      "2 56341  97.6046  29.1942 0002256  89.9704  11.8943 15.01260013    18"
    ]
  },
  "56342": {
    "noradId": "56342",
    "tle": [
      "1 56342C 23058AB  26026.80951389 -.00002215  00000+0 -15382-3 0   261",
      "2 56342  97.6057  29.9663 0002240  90.4927  32.4184 15.05648152    10"
    ]
  },
  "56343": {
    "noradId": "56343",
    "tle": [
      "1 56343C 23058AC  26026.80673611 -.00000747  00000+0 -51883-4 0   266",
      "2 56343  97.6062  29.8990 0001863  91.0569 226.8378 15.05645379    10"
    ]
  },
  "56344": {
    "noradId": "56344",
    "tle": [
      "1 56344C 23058AD  26026.80465278 -.00004585  00000+0 -31832-3 0   260",
      "2 56344  97.6053  29.9873 0001813  95.0276  61.5341 15.05662400    14"
    ]
  }
}